ZIYUAN 3-04 (ZY 3-04)   
1 67131U 25300A   26009.18248613  .00001730  00000+0  80130-4 0  9994
2 67131  97.4889  88.1516 0003945 118.6144 241.5489 15.21458354  3666
CZ-4B R/B               
1 67132U 25300B   26011.61770180  .00133806  75530-5  53379-3 0  9995
2 67132  97.5503  92.7226 0153262 278.9800  79.4142 15.70748617  4154
KUIPER-00144            
1 67133U 25301A   26011.64171681  .00017989  00000+0  51263-3 0  9998
2 67133  51.8715 340.9049 0006395 169.3572 190.7551 15.36129937  4967
KUIPER-00164            
1 67134U 25301B   26011.63048895  .00029358  00000+0  81355-3 0  9996
2 67134  51.8741 340.8348 0002778 152.4917 207.6217 15.36712424  5142
KUIPER-00175            
1 67135U 25301C   26011.29672517  .00034821  00000+0  94587-3 0  9995
2 67135  51.8755 342.3466 0002724  97.9538 262.1758 15.37246380  4980
KUIPER-00179            
1 67136U 25301D   26011.62810266  .00027729  00000+0  76672-3 0  9992
2 67136  51.8759 340.8176 0003603 122.6530 237.4804 15.36810594  5140
KUIPER-00181            
1 67137U 25301E   26011.33486505  .00037980  00000+0  11126-2 0  9998
2 67137  51.8651 342.5851 0010484 197.2360 162.8271 15.34799530  5070
KUIPER-00183            
1 67138U 25301F   26011.53468383  .00022087  00000+0  65267-3 0  9993
2 67138  51.8623 341.6674 0011246 198.3047 161.7535 15.34810632  5117
KUIPER-00184            
1 67139U 25301G   26011.52878127  .00029384  00000+0  85740-3 0  9999
2 67139  51.8639 341.6313 0009446 197.2938 162.7727 15.35060298  5223
KUIPER-00186            
1 67140U 25301H   26011.51780933  .00029749  00000+0  84601-3 0  9997
2 67140  51.8694 341.5702 0007992 182.7244 177.3700 15.35873176  4948
KUIPER-00187            
1 67141U 25301J   26009.22914678  .00073426  00000+0  20781-2 0  9997
2 67141  51.8715 352.4882 0005093 161.2249 198.8926 15.35620690  4590
KUIPER-00188            
1 67142U 25301K   26011.51964233  .00027069  00000+0  77565-3 0  9990
2 67142  51.8707 341.5840 0007494 188.3582 171.7280 15.35690546  4941
