CCSDS_OMM_VERS = 2.0
CREATION_DATE  = 
ORIGINATOR     = 

OBJECT_NAME    = ZIYUAN 3-04 (ZY 3-04)
OBJECT_ID      = 2025-300A
CENTER_NAME    = EARTH
REF_FRAME      = TEME
TIME_SYSTEM    = UTC
MEAN_ELEMENT_THEORY = SGP/SGP4

EPOCH          = 2026-01-09T04:22:46.801632
MEAN_MOTION    = 15.21458354
ECCENTRICITY   = .00039457
INCLINATION    = 97.4889
RA_OF_ASC_NODE = 88.1516
ARG_OF_PERICENTER = 118.6144
MEAN_ANOMALY   = 241.5489

EPHEMERIS_TYPE = 0
CLASSIFICATION_TYPE = U
NORAD_CAT_ID   = 67131
ELEMENT_SET_NO = 999
REV_AT_EPOCH   = 366
BSTAR          = .80129707E-4
MEAN_MOTION_DOT = .173E-4
MEAN_MOTION_DDOT = 0

CCSDS_OMM_VERS = 2.0
CREATION_DATE  = 
ORIGINATOR     = 

OBJECT_NAME    = CZ-4B R/B
OBJECT_ID      = 2025-300B
CENTER_NAME    = EARTH
REF_FRAME      = TEME
TIME_SYSTEM    = UTC
MEAN_ELEMENT_THEORY = SGP/SGP4

EPOCH          = 2026-01-11T14:49:29.435520
MEAN_MOTION    = 15.70748617
ECCENTRICITY   = .01532626
INCLINATION    = 97.5503
RA_OF_ASC_NODE = 92.7226
ARG_OF_PERICENTER = 278.9800
MEAN_ANOMALY   = 79.4142

EPHEMERIS_TYPE = 0
CLASSIFICATION_TYPE = U
NORAD_CAT_ID   = 67132
ELEMENT_SET_NO = 999
REV_AT_EPOCH   = 415
BSTAR          = .53379359E-3
MEAN_MOTION_DOT = .133806E-2
MEAN_MOTION_DDOT = .7552986E-5

CCSDS_OMM_VERS = 2.0
CREATION_DATE  = 
ORIGINATOR     = 

OBJECT_NAME    = KUIPER-00144
OBJECT_ID      = 2025-301A
CENTER_NAME    = EARTH
REF_FRAME      = TEME
TIME_SYSTEM    = UTC
MEAN_ELEMENT_THEORY = SGP/SGP4

EPOCH          = 2026-01-11T15:24:04.332384
MEAN_MOTION    = 15.36129937
ECCENTRICITY   = .00063952
INCLINATION    = 51.8715
RA_OF_ASC_NODE = 340.9049
ARG_OF_PERICENTER = 169.3572
MEAN_ANOMALY   = 190.7551

EPHEMERIS_TYPE = 0
CLASSIFICATION_TYPE = U
NORAD_CAT_ID   = 67133
ELEMENT_SET_NO = 999
REV_AT_EPOCH   = 496
BSTAR          = .51263411E-3
MEAN_MOTION_DOT = .17989E-3
MEAN_MOTION_DDOT = 0

CCSDS_OMM_VERS = 2.0
CREATION_DATE  = 
ORIGINATOR     = 

OBJECT_NAME    = KUIPER-00164
OBJECT_ID      = 2025-301B
CENTER_NAME    = EARTH
REF_FRAME      = TEME
TIME_SYSTEM    = UTC
MEAN_ELEMENT_THEORY = SGP/SGP4

EPOCH          = 2026-01-11T15:07:54.245280
MEAN_MOTION    = 15.36712424
ECCENTRICITY   = .00027784
INCLINATION    = 51.8741
RA_OF_ASC_NODE = 340.8348
ARG_OF_PERICENTER = 152.4917
MEAN_ANOMALY   = 207.6217

EPHEMERIS_TYPE = 0
CLASSIFICATION_TYPE = U
NORAD_CAT_ID   = 67134
ELEMENT_SET_NO = 999
REV_AT_EPOCH   = 514
BSTAR          = .81355213E-3
MEAN_MOTION_DOT = .29358E-3
MEAN_MOTION_DDOT = 0

CCSDS_OMM_VERS = 2.0
CREATION_DATE  = 
ORIGINATOR     = 

OBJECT_NAME    = KUIPER-00175
OBJECT_ID      = 2025-301C
CENTER_NAME    = EARTH
REF_FRAME      = TEME
TIME_SYSTEM    = UTC
MEAN_ELEMENT_THEORY = SGP/SGP4

EPOCH          = 2026-01-11T07:07:17.054688
MEAN_MOTION    = 15.37246380
ECCENTRICITY   = .00027246
INCLINATION    = 51.8755
RA_OF_ASC_NODE = 342.3466
ARG_OF_PERICENTER = 97.9538
MEAN_ANOMALY   = 262.1758

EPHEMERIS_TYPE = 0
CLASSIFICATION_TYPE = U
NORAD_CAT_ID   = 67135
ELEMENT_SET_NO = 999
REV_AT_EPOCH   = 498
BSTAR          = .94586895E-3
MEAN_MOTION_DOT = .34821E-3
MEAN_MOTION_DDOT = 0

CCSDS_OMM_VERS = 2.0
CREATION_DATE  = 
ORIGINATOR     = 

OBJECT_NAME    = KUIPER-00179
OBJECT_ID      = 2025-301D
CENTER_NAME    = EARTH
REF_FRAME      = TEME
TIME_SYSTEM    = UTC
MEAN_ELEMENT_THEORY = SGP/SGP4

EPOCH          = 2026-01-11T15:04:28.069824
MEAN_MOTION    = 15.36810594
ECCENTRICITY   = .00036037
INCLINATION    = 51.8759
RA_OF_ASC_NODE = 340.8176
ARG_OF_PERICENTER = 122.6530
MEAN_ANOMALY   = 237.4804

EPHEMERIS_TYPE = 0
CLASSIFICATION_TYPE = U
NORAD_CAT_ID   = 67136
ELEMENT_SET_NO = 999
REV_AT_EPOCH   = 514
BSTAR          = .76671642E-3
MEAN_MOTION_DOT = .27729E-3
MEAN_MOTION_DDOT = 0

CCSDS_OMM_VERS = 2.0
CREATION_DATE  = 
ORIGINATOR     = 

OBJECT_NAME    = KUIPER-00181
OBJECT_ID      = 2025-301E
CENTER_NAME    = EARTH
REF_FRAME      = TEME
TIME_SYSTEM    = UTC
MEAN_ELEMENT_THEORY = SGP/SGP4

EPOCH          = 2026-01-11T08:02:12.340320
MEAN_MOTION    = 15.34799530
ECCENTRICITY   = .00104843
INCLINATION    = 51.8651
RA_OF_ASC_NODE = 342.5851
ARG_OF_PERICENTER = 197.2360
MEAN_ANOMALY   = 162.8271

EPHEMERIS_TYPE = 0
CLASSIFICATION_TYPE = U
NORAD_CAT_ID   = 67137
ELEMENT_SET_NO = 999
REV_AT_EPOCH   = 507
BSTAR          = .11125593E-2
MEAN_MOTION_DOT = .3798E-3
MEAN_MOTION_DDOT = 0

CCSDS_OMM_VERS = 2.0
CREATION_DATE  = 
ORIGINATOR     = 

OBJECT_NAME    = KUIPER-00183
OBJECT_ID      = 2025-301F
CENTER_NAME    = EARTH
REF_FRAME      = TEME
TIME_SYSTEM    = UTC
MEAN_ELEMENT_THEORY = SGP/SGP4

EPOCH          = 2026-01-11T12:49:56.682912
MEAN_MOTION    = 15.34810632
ECCENTRICITY   = .00112469
INCLINATION    = 51.8623
RA_OF_ASC_NODE = 341.6674
ARG_OF_PERICENTER = 198.3047
MEAN_ANOMALY   = 161.7535

EPHEMERIS_TYPE = 0
CLASSIFICATION_TYPE = U
NORAD_CAT_ID   = 67138
ELEMENT_SET_NO = 999
REV_AT_EPOCH   = 511
BSTAR          = .65266737E-3
MEAN_MOTION_DOT = .22087E-3
MEAN_MOTION_DDOT = 0

CCSDS_OMM_VERS = 2.0
CREATION_DATE  = 
ORIGINATOR     = 

OBJECT_NAME    = KUIPER-00184
OBJECT_ID      = 2025-301G
CENTER_NAME    = EARTH
REF_FRAME      = TEME
TIME_SYSTEM    = UTC
MEAN_ELEMENT_THEORY = SGP/SGP4

EPOCH          = 2026-01-11T12:41:26.701728
MEAN_MOTION    = 15.35060298
ECCENTRICITY   = .00094464
INCLINATION    = 51.8639
RA_OF_ASC_NODE = 341.6313
ARG_OF_PERICENTER = 197.2938
MEAN_ANOMALY   = 162.7727

EPHEMERIS_TYPE = 0
CLASSIFICATION_TYPE = U
NORAD_CAT_ID   = 67139
ELEMENT_SET_NO = 999
REV_AT_EPOCH   = 522
BSTAR          = .85740221E-3
MEAN_MOTION_DOT = .29384E-3
MEAN_MOTION_DDOT = 0

CCSDS_OMM_VERS = 2.0
CREATION_DATE  = 
ORIGINATOR     = 

OBJECT_NAME    = KUIPER-00186
OBJECT_ID      = 2025-301H
CENTER_NAME    = EARTH
REF_FRAME      = TEME
TIME_SYSTEM    = UTC
MEAN_ELEMENT_THEORY = SGP/SGP4

EPOCH          = 2026-01-11T12:25:38.726112
MEAN_MOTION    = 15.35873176
ECCENTRICITY   = .00079921
INCLINATION    = 51.8694
RA_OF_ASC_NODE = 341.5702
ARG_OF_PERICENTER = 182.7244
MEAN_ANOMALY   = 177.3700

EPHEMERIS_TYPE = 0
CLASSIFICATION_TYPE = U
NORAD_CAT_ID   = 67140
ELEMENT_SET_NO = 999
REV_AT_EPOCH   = 494
BSTAR          = .84600693E-3
MEAN_MOTION_DOT = .29749E-3
MEAN_MOTION_DDOT = 0

CCSDS_OMM_VERS = 2.0
CREATION_DATE  = 
ORIGINATOR     = 

OBJECT_NAME    = KUIPER-00187
OBJECT_ID      = 2025-301J
CENTER_NAME    = EARTH
REF_FRAME      = TEME
TIME_SYSTEM    = UTC
MEAN_ELEMENT_THEORY = SGP/SGP4

EPOCH          = 2026-01-09T05:29:58.281792
MEAN_MOTION    = 15.35620690
ECCENTRICITY   = .00050938
INCLINATION    = 51.8715
RA_OF_ASC_NODE = 352.4882
ARG_OF_PERICENTER = 161.2249
MEAN_ANOMALY   = 198.8926

EPHEMERIS_TYPE = 0
CLASSIFICATION_TYPE = U
NORAD_CAT_ID   = 67141
ELEMENT_SET_NO = 999
REV_AT_EPOCH   = 459
BSTAR          = .20781137E-2
MEAN_MOTION_DOT = .73426E-3
MEAN_MOTION_DDOT = 0

CCSDS_OMM_VERS = 2.0
CREATION_DATE  = 
ORIGINATOR     = 

OBJECT_NAME    = KUIPER-00188
OBJECT_ID      = 2025-301K
CENTER_NAME    = EARTH
REF_FRAME      = TEME
TIME_SYSTEM    = UTC
MEAN_ELEMENT_THEORY = SGP/SGP4

EPOCH          = 2026-01-11T12:28:17.097312
MEAN_MOTION    = 15.35690546
ECCENTRICITY   = .00074943
INCLINATION    = 51.8707
RA_OF_ASC_NODE = 341.5840
ARG_OF_PERICENTER = 188.3582
MEAN_ANOMALY   = 171.7280

EPHEMERIS_TYPE = 0
CLASSIFICATION_TYPE = U
NORAD_CAT_ID   = 67142
ELEMENT_SET_NO = 999
REV_AT_EPOCH   = 494
BSTAR          = .77564548E-3
MEAN_MOTION_DOT = .27069E-3
MEAN_MOTION_DDOT = 0

